$$SOE
2459580.500000000, A.D. 2022-Jan-01 00:00:00.0000, -6.231722123545328E+08, 7.117464620774642E+07, 6.360292428428579E+06,
2459587.500000000, A.D. 2022-Jan-08 00:00:00.0000, -6.232128260385412E+08, 6.265520338703988E+07, 6.755776045558061E+06,
2459594.500000000, A.D. 2022-Jan-15 00:00:00.0000, -6.231303996019099E+08, 5.412339451493109E+07, 7.149926347561210E+06,
2459601.500000000, A.D. 2022-Jan-22 00:00:00.0000, -6.229244289015758E+08, 4.558085871023275E+07, 7.542659171593131E+06,
2459608.500000000, A.D. 2022-Jan-29 00:00:00.0000, -6.225944260351830E+08, 3.702925326228534E+07, 7.933889994959315E+06,
2459615.500000000, A.D. 2022-Feb-05 00:00:00.0000, -6.221399219432380E+08, 2.847025297830185E+07, 8.323534087972252E+06,
2459622.500000000, A.D. 2022-Feb-12 00:00:00.0000, -6.215604668480338E+08, 1.990554845616395E+07, 8.711506382209767E+06,
2459629.500000000, A.D. 2022-Feb-19 00:00:00.0000, -6.208556298533157E+08, 1.133684565159365E+07, 9.097721369250152E+06,
2459636.500000000, A.D. 2022-Feb-26 00:00:00.0000, -6.200249990154907E+08, 2.765866016142541E+06, 9.482093090916198E+06,
2459643.500000000, A.D. 2022-Mar-05 00:00:00.0000, -6.190681817269257E+08, -5.805653411432118E+06, 9.864535155755112E+06,
2459650.500000000, A.D. 2022-Mar-12 00:00:00.0000, -6.179848051893640E+08, -1.437596002658832E+07, 1.024496075576158E+07,
2459657.500000000, A.D. 2022-Mar-19 00:00:00.0000, -6.167745169063214E+08, -2.294328576567028E+07, 1.062328267882546E+07,
2459664.500000000, A.D. 2022-Mar-26 00:00:00.0000, -6.154369851721760E+08, -3.150584730421932E+07, 1.099941331407782E+07,
2459671.500000000, A.D. 2022-Apr-02 00:00:00.0000, -6.139718994903961E+08, -4.006184640306972E+07, 1.137326463908969E+07,
2459678.500000000, A.D. 2022-Apr-09 00:00:00.0000, -6.123789706490405E+08, -4.860947039756310E+07, 1.174474816415330E+07,
2459685.500000000, A.D. 2022-Apr-16 00:00:00.0000, -6.106579300963838E+08, -5.714689217593889E+07, 1.211377485417856E+07,
2459692.500000000, A.D. 2022-Apr-23 00:00:00.0000, -6.088085298853562E+08, -6.567226856294698E+07, 1.248025523308438E+07,
2459699.500000000, A.D. 2022-Apr-30 00:00:00.0000, -6.068305450570996E+08, -7.418373935451278E+07, 1.284409965864842E+07,
2459706.500000000, A.D. 2022-May-07 00:00:00.0000, -6.047237754014851E+08, -8.267942897731742E+07, 1.320521832557252E+07,
2459713.500000000, A.D. 2022-May-14 00:00:00.0000, -6.024880452050322E+08, -9.115744773502044E+07, 1.356352111764613E+07,
2459720.500000000, A.D. 2022-May-21 00:00:00.0000, -6.001232030165775E+08, -9.961589188272645E+07, 1.391891755735171E+07,
2459727.500000000, A.D. 2022-May-28 00:00:00.0000, -5.976291219091843E+08, -1.080528434891600E+08, 1.427131681848843E+07,
2459734.500000000, A.D. 2022-Jun-04 00:00:00.0000, -5.950056999612379E+08, -1.164663703999243E+08, 1.462062775085886E+07,
2459741.500000000, A.D. 2022-Jun-11 00:00:00.0000, -5.922528608120120E+08, -1.248545262999773E+08, 1.496675890399189E+07,
2459748.500000000, A.D. 2022-Jun-18 00:00:00.0000, -5.893705542527953E+08, -1.332153508622790E+08, 1.530961854752760E+07,
2459755.500000000, A.D. 2022-Jun-25 00:00:00.0000, -5.863587568238140E+08, -1.415468700160232E+08, 1.564911468296228E+07,
2459762.500000000, A.D. 2022-Jul-02 00:00:00.0000, -5.832174722825512E+08, -1.498470964004587E+08, 1.598515502921463E+07,
2459769.500000000, A.D. 2022-Jul-09 00:00:00.0000, -5.799467315527796E+08, -1.581140298276068E+08, 1.631764696083111E+07,
2459776.500000000, A.D. 2022-Jul-16 00:00:00.0000, -5.765465922089325E+08, -1.663456566714152E+08, 1.664649749255291E+07,
2459783.500000000, A.D. 2022-Jul-23 00:00:00.0000, -5.730171396935986E+08, -1.745399481062498E+08, 1.697161351842449E+07,
2459790.500000000, A.D. 2022-Jul-30 00:00:00.0000, -5.693584901840028E+08, -1.826948605495709E+08, 1.729290202384903E+07,
2459797.500000000, A.D. 2022-Aug-06 00:00:00.0000, -5.655707915089350E+08, -1.908083376611914E+08, 1.761026999372932E+07,
2459804.500000000, A.D. 2022-Aug-13 00:00:00.0000, -5.616542229387566E+08, -1.988783111448111E+08, 1.792362431761125E+07,
2459811.500000000, A.D. 2022-Aug-20 00:00:00.0000, -5.576089954168491E+08, -2.069027008557301E+08, 1.823287179489762E+07,
2459818.500000000, A.D. 2022-Aug-27 00:00:00.0000, -5.534353521637590E+08, -2.148794149422008E+08, 1.853791917471869E+07,
2459825.500000000, A.D. 2022-Sep-03 00:00:00.0000, -5.491335694058576E+08, -2.228063501318175E+08, 1.883867319886886E+07,
2459832.500000000, A.D. 2022-Sep-10 00:00:00.0000, -5.447039571381812E+08, -2.306813921397201E+08, 1.913504064165436E+07,
2459839.500000000, A.D. 2022-Sep-17 00:00:00.0000, -5.401468598916978E+08, -2.385024162009545E+08, 1.942692834389593E+07,
2459846.500000000, A.D. 2022-Sep-24 00:00:00.0000, -5.354626574441479E+08, -2.462672877784451E+08, 1.971424323139350E+07,
2459853.500000000, A.D. 2022-Oct-01 00:00:00.0000, -5.306517652340243E+08, -2.539738634693856E+08, 1.999689229394227E+07,
2459860.500000000, A.D. 2022-Oct-08 00:00:00.0000, -5.257146340698062E+08, -2.616199915883071E+08, 2.027478253006053E+07,
2459867.500000000, A.D. 2022-Oct-15 00:00:00.0000, -5.206517500653347E+08, -2.692035112278017E+08, 2.054782104068317E+07,
2459874.500000000, A.D. 2022-Oct-22 00:00:00.0000, -5.154636369817097E+08, -2.767222514811391E+08, 2.081591533403118E+07,
2459881.500000000, A.D. 2022-Oct-29 00:00:00.0000, -5.101508584770394E+08, -2.841740334209254E+08, 2.107897340030853E+07,
2459888.500000000, A.D. 2022-Nov-05 00:00:00.0000, -5.047140181638737E+08, -2.915566720930303E+08, 2.133690358743742E+07,
2459895.500000000, A.D. 2022-Nov-12 00:00:00.0000, -4.991537594376531E+08, -2.988679772588403E+08, 2.158961456138745E+07,
2459902.500000000, A.D. 2022-Nov-19 00:00:00.0000, -4.934707657940802E+08, -3.061057538407689E+08, 2.183701533887133E+07,
2459909.500000000, A.D. 2022-Nov-26 00:00:00.0000, -4.876657613723633E+08, -3.132678024695141E+08, 2.207901533570188E+07,
2459916.500000000, A.D. 2022-Dec-03 00:00:00.0000, -4.817395115579617E+08, -3.203519201455625E+08, 2.231552441454743E+07,
2459923.500000000, A.D. 2022-Dec-10 00:00:00.0000, -4.756928235989624E+08, -3.273559009968049E+08, 2.254645292942782E+07,
2459930.500000000, A.D. 2022-Dec-17 00:00:00.0000, -4.695265472107279E+08, -3.342775371574979E+08, 2.277171176267391E+07,
2459937.500000000, A.D. 2022-Dec-24 00:00:00.0000, -4.632415750584666E+08, -3.411146198345385E+08, 2.299121233898352E+07,
2459944.500000000, A.D. 2022-Dec-31 00:00:00.0000, -4.568388427589166E+08, -3.478649404536413E+08, 2.320486659261602E+07,
2459951.500000000, A.D. 2023-Jan-07 00:00:00.0000, -4.503193282770466E+08, -3.545262909230525E+08, 2.341258695516992E+07,
2459958.500000000, A.D. 2023-Jan-14 00:00:00.0000, -4.436840526831068E+08, -3.610964625179995E+08, 2.361428658499759E+07,
2459965.500000000, A.D. 2023-Jan-21 00:00:00.0000, -4.369340829131421E+08, -3.675732465589613E+08, 2.380987963813087E+07,
2459972.500000000, A.D. 2023-Jan-28 00:00:00.0000, -4.300705328640232E+08, -3.739544370799740E+08, 2.399928122837296E+07,
2459979.500000000, A.D. 2023-Feb-04 00:00:00.0000, -4.230945630306294E+08, -3.802378324592952E+08, 2.418240734324645E+07,
2459986.500000000, A.D. 2023-Feb-11 00:00:00.0000, -4.160073804788364E+08, -3.864212362055808E+08, 2.435917486474630E+07,
2459993.500000000, A.D. 2023-Feb-18 00:00:00.0000, -4.088102392156631E+08, -3.925024577224302E+08, 2.452950163348179E+07,
2460000.500000000, A.D. 2023-Feb-25 00:00:00.0000, -4.015044406919494E+08, -3.984793132130128E+08, 2.469330651895225E+07,
2460007.500000000, A.D. 2023-Mar-04 00:00:00.0000, -3.940913343337322E+08, -4.043496267059342E+08, 2.485050948823838E+07,
2460014.500000000, A.D. 2023-Mar-11 00:00:00.0000, -3.865723180721564E+08, -4.101112312016504E+08, 2.500103167069671E+07,
2460021.500000000, A.D. 2023-Mar-18 00:00:00.0000, -3.789488388232703E+08, -4.157619699885339E+08, 2.514479541049370E+07,
2460028.500000000, A.D. 2023-Mar-25 00:00:00.0000, -3.712223927127410E+08, -4.212996981753063E+08, 2.528172428467962E+07,
2460035.500000000, A.D. 2023-Apr-01 00:00:00.0000, -3.633945246192786E+08, -4.267222840458241E+08, 2.541174308021149E+07,
2460042.500000000, A.D. 2023-Apr-08 00:00:00.0000, -3.554668276503465E+08, -4.320276090103985E+08, 2.553477788663909E+07,
2460049.500000000, A.D. 2023-Apr-15 00:00:00.0000, -3.474409448850664E+08, -4.372135672589055E+08, 2.565075642848960E+07,
2460056.500000000, A.D. 2023-Apr-22 00:00:00.0000, -3.393185715732052E+08, -4.422780681672900E+08, 2.575960822200963E+07,
2460063.500000000, A.D. 2023-Apr-29 00:00:00.0000, -3.311014550539470E+08, -4.472190392044039E+08, 2.586126448953617E+07,
2460070.500000000, A.D. 2023-May-06 00:00:00.0000, -3.227913941533971E+08, -4.520344275570621E+08, 2.595565813848311E+07,
2460077.500000000, A.D. 2023-May-13 00:00:00.0000, -3.143902390358153E+08, -4.567222013653952E+08, 2.604272382134062E+07,
2460084.500000000, A.D. 2023-May-20 00:00:00.0000, -3.058998912723847E+08, -4.612803510582114E+08, 2.612239801477233E+07,
2460091.500000000, A.D. 2023-May-27 00:00:00.0000, -2.973223039319945E+08, -4.657068908167091E+08, 2.619461909729916E+07,
2460098.500000000, A.D. 2023-Jun-03 00:00:00.0000, -2.886594816346577E+08, -4.699998601396362E+08, 2.625932742205364E+07,
2460105.500000000, A.D. 2023-Jun-10 00:00:00.0000, -2.799134805422785E+08, -4.741573255226585E+08, 2.631646538097513E+07,
2460112.500000000, A.D. 2023-Jun-17 00:00:00.0000, -2.710864081963794E+08, -4.781773823107067E+08, 2.636597744706824E+07,
2460119.500000000, A.D. 2023-Jun-24 00:00:00.0000, -2.621804228814126E+08, -4.820581566659236E+08, 2.640781016961774E+07,
2460126.500000000, A.D. 2023-Jul-01 00:00:00.0000, -2.531977322589063E+08, -4.857978068209530E+08, 2.644191216650414E+07,
2460133.500000000, A.D. 2023-Jul-08 00:00:00.0000, -2.441405929444034E+08, -4.893945227930349E+08, 2.646823433399281E+07,
2460140.500000000, A.D. 2023-Jul-15 00:00:00.0000, -2.350113123014653E+08, -4.928465273865753E+08, 2.648673015947777E+07,
$$EOE